GPS BIIA-10 (PRN 32)    
1 20959U 90103A   09011.03940707 -.00000035  00000-0  10000-3 0  1084
2 20959  55.3448 289.3027 0139354 289.8403  68.7125  2.00564392132754
GPS BIIA-11 (PRN 24)    
1 21552U 91047A   09010.74222125  .00000074  00000-0  10000-3 0  1369
2 21552  54.5138 227.3406 0072803 322.1286  37.4356  2.00564277128339
GPS BIIA-12 (PRN 25)    
1 21890U 92009A   09011.24487895 -.00000045  00000-0  10000-3 0  1433
2 21890  55.4593  38.9891 0119776 288.8099  69.9511  2.00562856123726
GPS BIIA-14 (PRN 26)    
1 22014U 92039A   09011.34124322 -.00000085  00000-0  10000-3 0  8621
2 22014  56.9082 347.3676 0192132  54.9639 306.8157  2.00568478114490
GPS BIIA-15 (PRN 27)    
1 22108U 92058A   09011.32804742 -.00000043  00000-0  10000-3 0  9293
2 22108  55.7245  41.0317 0212676 264.6144  93.0123  2.00383867119679
GPS BIIA-21 (PRN 09)    
1 22700U 93042A   09010.96900486 -.00000039  00000-0  10000-3 0  3093
2 22700  55.8352  42.4216 0198723  83.5450 278.7822  2.00566127113825
GPS BIIA-22 (PRN 05)    
1 22779U 93054A   09011.06750927 -.00000017  00000-0  10000-3 0  8335
2 22779  54.1303  98.9987 0091598  74.1188 286.9119  2.00566708112583
GPS BIIA-23 (PRN 04)    
1 22877U 93068A   09011.10036149  .00000069  00000-0  10000-3 0  6151
2 22877  53.9330 224.8137 0085347  25.2276 335.2545  2.00565211111472
GPS BIIA-24 (PRN 06)    
1 23027U 94016A   09011.30489318  .00000031  00000-0  10000-3 0  6390
2 23027  53.4916 161.8823 0058355 274.1347  85.1555  2.00558530108788
GPS BIIA-25 (PRN 03)    
1 23833U 96019A   09011.32058793  .00000026  00000-0  10000-3 0  8218
2 23833  53.0653 158.0736 0114205  50.4861 310.4669  2.00557195 93768
GPS BIIA-26 (PRN 10)    
1 23953U 96041A   09010.74742369 -.00000028  00000-0  10000-3 0  2701
2 23953  55.0243 285.8510 0083065  31.6660 328.8788  2.00553803 91545
GPS BIIA-27 (PRN 30)    
1 24320U 96056A   09011.10079703 -.00000015  00000-0  10000-3 0   133
2 24320  54.4668 102.0383 0109637  81.1448 280.1094  2.00565076 90212
GPS BIIR-02 (PRN 13)    
1 24876U 97035A   09011.18762417 -.00000085  00000-0  10000-3 0  7905
2 24876  57.0293 347.4882 0034006  86.6842 273.7011  2.00552863 84080
GPS BIIA-28 (PRN 08)    
1 25030U 97067A   09011.32344062 -.00000035  00000-0  10000-3 0  6972
2 25030  56.5363  47.7123 0104464 171.3708 188.8783  2.00561131 81988
GPS BIIR-03 (PRN 11)    
1 25933U 99055A   09011.46445027  .00000061  00000-0  10000-3 0  2605
2 25933  50.9963 212.6652 0089603  37.6112 323.0529  2.00563790 67904
GPS BIIR-04 (PRN 20)    
1 26360U 00025A   09011.06679083 -.00000025  00000-0  10000-3 0  3541
2 26360  54.0857 283.1905 0035999  74.3637 286.0894  2.00559642 63594
GPS BIIR-05 (PRN 28)    
1 26407U 00040A   09011.40675728 -.00000011  00000-0  10000-3 0  3028
2 26407  55.3197 106.0742 0146461 242.0041 116.5212  2.00567644 62275
GPS BIIR-06 (PRN 14)    
1 26605U 00071A   09011.00857764 -.00000085  00000-0  10000-3 0  2963
2 26605  56.6638 346.4268 0046797 240.9538 118.5689  2.00577782 59866
GPS BIIR-07 (PRN 18)    
1 26690U 01004A   09010.87515065 -.00000030  00000-0  10000-3 0  1827
2 26690  54.1107 286.2753 0100226 221.6554 137.6268  2.00554975 58274
GPS BIIR-08 (PRN 16)    
1 27663U 03005A   09011.22169996 -.00000012  00000-0  10000-3 0  5531
2 27663  55.4235 105.6042 0049147 335.9368  23.8426  2.00556257 43633
GPS BIIR-09 (PRN 21)    
1 27704U 03010A   09010.79231822  .00000072  00000-0  10000-3 0  4424
2 27704  53.5586 225.6316 0144471 207.7400 151.5253  2.00564987 42414
GPS BIIR-10 (PRN 22)    
1 28129U 03058A   09010.91716355 -.00000031  00000-0  10000-3 0   726
2 28129  53.9760 286.6164 0052031 257.2665 102.2035  2.00564005 37129
GPS BIIR-11 (PRN 19)    
1 28190U 04009A   09011.36682070  .00000040  00000-0  10000-3 0    85
2 28190  54.8582 168.5230 0050622 334.8895  24.8233  2.00552448 35307
GPS BIIR-12 (PRN 23)    
1 28361U 04023A   09011.15213258 -.00000087  00000-0  10000-3 0  8378
2 28361  55.6330 344.6952 0057232 167.9148 192.2193  2.00565610 33381
GPS BIIR-13 (PRN 02)    
1 28474U 04045A   09010.64992143  .00000076  00000-0  10000-3 0  7171
2 28474  53.9761 223.7676 0087081 155.3477 205.1373  2.00572328 30730
GPS BIIRM-1 (PRN 17)    
1 28874U 05038A   09011.49732527  .00000036  00000-0  10000-3 0  9718
2 28874  54.9887 165.2819 0041590 203.6013 156.1655  2.00569063 24172
GPS BIIRM-2 (PRN 31)    
1 29486U 06042A   09010.11081625 -.00000035  00000-0  10000-3 0  3914
2 29486  55.6345  44.3050 0072927 289.9466  69.3248  2.00571806 16846
GPS BIIRM-3 (PRN 12)    
1 29601U 06052A   09010.05871021 -.00000019  00000-0  10000-3 0  4164
2 29601  55.3304 104.6889 0032733 310.0599  49.6692  2.00554401 15756
GPS BIIRM-4 (PRN 15)    
1 32260U 07047A   09009.36568675 -.00000081  00000-0  00000+0 0  1930
2 32260  54.8397 343.7329 0015526 309.0205  50.8377  2.00555256  9133
GPS BIIRM-5 (PRN 29)    
1 32384U 07062A   09010.18476147  .00000045  00000-0  10000-3 0  2124
2 32384  54.9886 165.8055 0033820 281.2478  78.3433  2.00552155  7875
GPS BIIRM-6 (PRN 07)    
1 32711U 08012A   09010.27724880 -.00000037  00000-0  10000-3 0  1204
2 32711  55.3225  44.4568 0022614 172.1167 187.9851  2.00562773  6084
